NORAD_CAT_ID,OBJECT_NAME,OBJECT_TYPE,EPOCH,MEAN_MOTION,ECCENTRICITY,INCLINATION,RA_OF_ASC_NODE,ARG_OF_PERICENTER,MEAN_ANOMALY,BSTAR,MEAN_MOTION_DOT,MEAN_MOTION_DDOT,TLE_LINE0,TLE_LINE1,TLE_LINE2,SEMIMAJOR_AXIS,PERIOD,APOGEE,PERIGEE,DECAYED
53397.0,STARLINK-4515,PAYLOAD,2023-09-09 07:21:57,15.08842098,0.0001479,53.2171,259.9619,92.7187,267.3975,9.7682e-05,1.267e-05,0.0,0 STARLINK-4515,1 53397U 22097K   23252.30691706  .00001267  00000-0  97682-4 0  9995,2 53397  53.2171 259.9619 0001479  92.7187 267.3975 15.08842098 60284,6917.874,95.437,540.762,538.716,0.0
53397.0,STARLINK-4515,PAYLOAD,2023-09-09 12:08:06,15.08844962,0.0001453,53.2179,259.0697,94.0915,266.0243,0.00010501,1.384e-05,0.0,0 STARLINK-4515,1 53397U 22097K   23252.50563487  .00001384  00000-0  10501-3 0  9995,2 53397  53.2179 259.0697 0001453  94.0915 266.0243 15.08844962 60809,6917.865,95.437,540.735,538.725,0.0
53397.0,STARLINK-4515,PAYLOAD,2023-09-10 00:51:12,15.08838291,0.0001343,53.2175,256.6919,94.2513,265.8632,7.4579e-05,8.99e-06,0.0,0 STARLINK-4515,1 53397U 22097K   23253.03555985  .00000899  00000-0  74579-4 0  9994,2 53397  53.2175 256.6919 0001343  94.2513 265.8632 15.08838291 60390,6917.886,95.438,540.68,538.822,0.0
53397.0,STARLINK-4515,PAYLOAD,2023-09-10 07:12:44,15.08843342,0.0001374,53.217,255.5031,95.3128,264.8021,6.8276e-05,7.99e-06,0.0,0 STARLINK-4515,1 53397U 22097K   23253.30051679  .00000799  00000-0  68276-4 0  9991,2 53397  53.2170 255.5031 0001374  95.3128 264.8021 15.08843342 60929,6917.87,95.437,540.686,538.785,0.0
53397.0,STARLINK-4515,PAYLOAD,2023-09-11 00:42:00,15.08829775,0.00014,53.2166,252.2332,100.8578,259.2572,1.084e-05,-1.15e-06,0.0,0 STARLINK-4515,1 53397U 22097K   23254.02916787 -.00000115  00000-0  10840-4 0  9998,2 53397  53.2166 252.2332 0001400 100.8578 259.2572 15.08829775 60544,6917.912,95.438,540.745,538.808,0.0
53397.0,STARLINK-4515,PAYLOAD,2023-09-11 07:03:32,15.08834454,0.0001366,53.2168,251.0451,97.8464,262.2684,1.1271e-06,-2.7e-06,0.0,0 STARLINK-4515,1 53397U 22097K   23254.29412657 -.00000270  00000-0  11271-5 0  9996,2 53397  53.2168 251.0451 0001366  97.8464 262.2684 15.08834454 61072,6917.897,95.438,540.707,538.817,0.0
53397.0,STARLINK-4515,PAYLOAD,2023-09-11 16:35:51,15.08837233,0.0001384,53.2169,249.2607,97.8765,262.2384,2.2848e-05,7.6e-07,0.0,0 STARLINK-4515,1 53397U 22097K   23254.69156555  .00000076  00000-0  22848-4 0  9996,2 53397  53.2169 249.2607 0001384  97.8765 262.2384 15.08837233 60646,6917.889,95.438,540.711,538.796,0.0
53397.0,STARLINK-4515,PAYLOAD,2023-09-12 06:54:19,15.08844181,0.0001428,53.2171,246.5849,102.0466,258.0686,0.00010425,1.372e-05,0.0,0 STARLINK-4515,1 53397U 22097K   23255.28772057  .00001372  00000-0  10425-3 0  9990,2 53397  53.2171 246.5849 0001428 102.0466 258.0686 15.08844181 60731,6917.868,95.437,540.72,538.745,0.0
53397.0,STARLINK-4515,PAYLOAD,2023-09-12 16:26:37,15.088451,0.0001341,53.217,244.7991,100.937,259.1773,0.00011018,1.466e-05,0.0,0 STARLINK-4515,1 53397U 22097K   23255.68516004  .00001466  00000-0  11018-3 0  9995,2 53397  53.2170 244.7991 0001341 100.9370 259.1773 15.08845100 61285,6917.865,95.437,540.657,538.802,0.0
53397.0,STARLINK-4515,PAYLOAD,2023-09-12 22:48:11,15.08834757,0.0001381,53.2171,243.61,89.2104,270.9047,0.00014612,2.038e-05,0.0,0 STARLINK-4515,1 53397U 22097K   23255.95012734  .00002038  00000-0  14612-3 0  9995,2 53397  53.2171 243.6100 0001381  89.2104 270.9047 15.08834757 60835,6917.896,95.438,540.717,538.806,0.0
53397.0,STARLINK-4515,PAYLOAD,2023-09-13 08:20:29,15.0884614,0.0001477,53.2159,241.8257,85.9377,274.1784,0.00022327,3.268e-05,0.0,0 STARLINK-4515,1 53397U 22097K   23256.34756178  .00003268  00000-0  22327-3 0  9994,2 53397  53.2159 241.8257 0001477  85.9377 274.1784 15.08846140 60894,6917.862,95.437,540.748,538.705,0.0
53397.0,STARLINK-4515,PAYLOAD,2023-09-13 16:17:25,15.08840479,0.0001399,53.2153,240.3379,91.4125,268.7028,8.9871e-05,1.143e-05,0.0,0 STARLINK-4515,1 53397U 22097K   23256.67876371  .00001143  00000-0  89871-4 0  9996,2 53397  53.2153 240.3379 0001399  91.4125 268.7028 15.08840479 61433,6917.879,95.438,540.712,538.776,0.0
53397.0,STARLINK-4515,PAYLOAD,2023-09-14 08:11:16,15.08840973,0.0001451,53.2175,237.3616,93.8805,266.2353,2.2748e-05,7.4e-07,0.0,0 STARLINK-4515,1 53397U 22097K   23257.34116810  .00000074  00000-0  22748-4 0  9998,2 53397  53.2175 237.3616 0001451  93.8805 266.2353 15.08840973 61531,6917.877,95.437,540.746,538.739,0.0
53397.0,STARLINK-4515,PAYLOAD,2023-09-14 16:08:12,15.08839654,0.0001493,53.217,235.8757,93.5041,266.6122,2.663e-05,1.36e-06,0.0,0 STARLINK-4515,1 53397U 22097K   23257.67236942  .00000136  00000-0  26630-4 0  9996,2 53397  53.2170 235.8757 0001493  93.5041 266.6122 15.08839654 61093,6917.881,95.438,540.779,538.714,0.0
53397.0,STARLINK-4515,PAYLOAD,2023-09-15 08:02:03,15.08846963,0.0001543,53.2168,232.9021,107.4974,252.6187,7.009e-05,8.28e-06,0.0,0 STARLINK-4515,1 53397U 22097K   23258.33476341  .00000828  00000-0  70090-4 0  9996,2 53397  53.2168 232.9021 0001543 107.4974 252.6187 15.08846963 61196,6917.859,95.437,540.792,538.657,0.0
53397.0,STARLINK-4515,PAYLOAD,2023-09-15 15:58:59,15.08842502,0.0001457,53.2167,231.4152,99.1309,260.9848,1.6112e-05,-3.2e-07,0.0,0 STARLINK-4515,1 53397U 22097K   23258.66596723 -.00000032  00000-0  16112-4 0  9992,2 53397  53.2167 231.4152 0001457  99.1309 260.9848 15.08842502 61244,6917.873,95.437,540.746,538.73,0.0
53397.0,STARLINK-4515,PAYLOAD,2023-09-16 07:52:50,15.08845058,0.0001434,53.2172,228.4417,101.0845,259.0308,0.00010609,1.401e-05,0.0,0 STARLINK-4515,1 53397U 22097K   23259.32836536  .00001401  00000-0  10609-3 0  9999,2 53397  53.2172 228.4417 0001434 101.0845 259.0308 15.08845058 61837,6917.865,95.437,540.722,538.738,0.0
53397.0,STARLINK-4515,PAYLOAD,2023-09-17 02:57:28,15.08840725,0.0001447,53.2171,224.874,99.6127,260.5029,7.0862e-05,8.4e-06,0.0,0 STARLINK-4515,1 53397U 22097K   23260.12324976  .00000840  00000-0  70862-4 0  9993,2 53397  53.2171 224.8740 0001447  99.6127 260.5029 15.08840725 61466,6917.878,95.438,540.744,538.742,0.0
53397.0,STARLINK-4515,PAYLOAD,2023-09-17 07:43:37,15.08845562,0.0001447,53.217,223.9813,106.1253,253.9898,8.8062e-05,1.114e-05,0.0,0 STARLINK-4515,1 53397U 22097K   23260.32196626  .00001114  00000-0  88062-4 0  9990,2 53397  53.2170 223.9813 0001447 106.1253 253.9898 15.08845562 61981,6917.863,95.437,540.729,538.727,0.0
53397.0,STARLINK-4515,PAYLOAD,2023-09-18 02:48:13,15.08892884,0.0001652,53.2169,220.4117,92.0894,268.0287,-0.00067764,-0.00011072,0.0,0 STARLINK-4515,1 53397U 22097K   23261.11682631 -.00011072  00000-0 -67764-3 0  9995,2 53397  53.2169 220.4117 0001652  92.0894 268.0287 15.08892884 61618,6917.719,95.434,540.727,538.441,0.0
53397.0,STARLINK-4515,PAYLOAD,2023-09-18 07:34:24,15.08848474,0.0001382,53.2167,219.5213,95.3107,264.8042,0.00011246,1.503e-05,0.0,0 STARLINK-4515,1 53397U 22097K   23261.31556321  .00001503  00000-0  11246-3 0  9993,2 53397  53.2167 219.5213 0001382  95.3107 264.8042 15.08848474 61647,6917.854,95.437,540.676,538.763,0.0
53397.0,STARLINK-4515,PAYLOAD,2023-09-19 02:39:02,15.08844569,0.0001413,53.2168,215.9503,96.6644,263.4509,9.8959e-05,1.288e-05,0.0,0 STARLINK-4515,1 53397U 22097K   23262.11044574  .00001288  00000-0  98959-4 0  9991,2 53397  53.2168 215.9503 0001413  96.6644 263.4509 15.08844569 61762,6917.866,95.437,540.709,538.754,0.0
53397.0,STARLINK-4515,PAYLOAD,2023-09-19 04:14:25,15.0885006,0.000129,53.2163,215.657,94.3554,265.7585,0.00013242,1.821e-05,0.0,0 STARLINK-4515,1 53397U 22097K   23262.17668176  .00001821  00000-0  13242-3 0  9991,2 53397  53.2163 215.6570 0001290  94.3554 265.7585 15.08850060 61779,6917.85,95.437,540.607,538.822,0.0
53397.0,STARLINK-4515,PAYLOAD,2023-09-20 04:05:12,15.08844568,0.0001402,53.2166,211.1988,98.8227,261.2924,4.9683e-05,5.03e-06,0.0,0 STARLINK-4515,1 53397U 22097K   23263.17028480  .00000503  00000-0  49683-4 0  9995,2 53397  53.2166 211.1988 0001402  98.8227 261.2924 15.08844568 61928,6917.866,95.437,540.701,538.762,0.0
53397.0,STARLINK-4515,PAYLOAD,2023-09-20 13:37:32,15.08838224,0.000183,53.2179,209.4113,85.3852,274.7349,-4.3368e-05,-9.78e-06,0.0,0 STARLINK-4515,1 53397U 22097K   23263.56773320 -.00000978  00000-0 -43368-4 0  9990,2 53397  53.2179 209.4113 0001830  85.3852 274.7349 15.08838224 62475,6917.886,95.438,541.017,538.485,0.0
53397.0,STARLINK-4515,PAYLOAD,2023-09-20 19:59:05,15.08830995,0.0002015,53.2166,208.2258,89.0543,271.068,5.9938e-05,6.66e-06,0.0,0 STARLINK-4515,1 53397U 22097K   23263.83269840  .00000666  00000-0  59938-4 0  9999,2 53397  53.2166 208.2258 0002015  89.0543 271.0680 15.08830995 62512,6917.908,95.438,541.167,538.379,0.0
53397.0,STARLINK-4515,PAYLOAD,2023-09-21 02:20:38,15.0882503,0.0001369,53.2172,207.036,93.0569,267.058,-0.00012396,-2.259e-05,0.0,0 STARLINK-4515,1 53397U 22097K   23264.09766840 -.00002259  00000-0 -12396-3 0  9998,2 53397  53.2172 207.0360 0001369  93.0569 267.0580 15.08825030 62062,6917.926,95.439,540.738,538.844,0.0
53397.0,STARLINK-4515,PAYLOAD,2023-09-21 05:31:24,15.0883127,0.0001386,53.2174,206.441,91.4455,268.6696,-7.6498e-05,-1.505e-05,0.0,0 STARLINK-4515,1 53397U 22097K   23264.23014415 -.00001505  00000-0 -76498-4 0  9995,2 53397  53.2174 206.4410 0001386  91.4455 268.6696 15.08831270 62088,6917.907,95.438,540.731,538.813,0.0
53397.0,STARLINK-4515,PAYLOAD,2023-09-22 02:11:24,15.08848879,0.0001308,53.2174,202.5745,99.0421,261.0719,0.00012314,1.673e-05,0.0,0 STARLINK-4515,1 53397U 22097K   23265.09125053  .00001673  00000-0  12314-3 0  9991,2 53397  53.2174 202.5745 0001308  99.0421 261.0719 15.08848879 62218,6917.853,95.437,540.623,538.813,0.0
53397.0,STARLINK-4515,PAYLOAD,2023-09-22 05:22:09,15.0885651,0.0001382,53.2176,201.9789,96.8986,263.2164,0.00020398,2.961e-05,0.0,0 STARLINK-4515,1 53397U 22097K   23265.22372481  .00002961  00000-0  20398-3 0  9997,2 53397  53.2176 201.9789 0001382  96.8986 263.2164 15.08856510 62235,6917.83,95.437,540.651,538.739,0.0
